NORAD_CAT_ID,OBJECT_NAME,OBJECT_TYPE,EPOCH,MEAN_MOTION,ECCENTRICITY,INCLINATION,RA_OF_ASC_NODE,ARG_OF_PERICENTER,MEAN_ANOMALY,BSTAR,MEAN_MOTION_DOT,MEAN_MOTION_DDOT,TLE_LINE0,TLE_LINE1,TLE_LINE2,SEMIMAJOR_AXIS,PERIOD,APOGEE,PERIGEE,DECAYED
52363.0,STARLINK-3830,PAYLOAD,2024-02-12 06:30:53,15.08855759,0.0001465,53.2193,354.8123,103.5974,256.5181,0.0001115,1.488e-05,0.0,0 STARLINK-3830,1 52363U 22045AJ  24043.27145759  .00001488  00000-0  11150-3 0  9997,2 52363  53.2193 354.8123 0001465 103.5974 256.5181 15.08855759101592,6917.832,95.437,540.711,538.684,0.0
52363.0,STARLINK-3830,PAYLOAD,2024-02-12 20:49:23,15.08837804,0.0001432,53.2192,352.1361,115.2449,244.8692,-8.382e-05,-1.622e-05,0.0,0 STARLINK-3830,1 52363U 22045AJ  24043.86763431 -.00001622  00000-0 -83820-4 0  9991,2 52363  53.2192 352.1361 0001432 115.2449 244.8692 15.08837804101685,6917.887,95.438,540.743,538.761,0.0
52363.0,STARLINK-3830,PAYLOAD,2024-02-13 03:10:55,15.088429,0.0001638,53.2192,350.947,108.3369,251.7801,-3.191e-05,-7.96e-06,0.0,0 STARLINK-3830,1 52363U 22045AJ  24044.13259012 -.00000796  00000-0 -31910-4 0  9991,2 52363  53.2192 350.9470 0001638 108.3369 251.7801 15.08842900101721,6917.872,95.437,540.87,538.603,0.0
52363.0,STARLINK-3830,PAYLOAD,2024-02-13 06:21:41,15.08842033,0.0001688,53.2186,350.3518,107.3285,252.7891,-9.1512e-06,-4.34e-06,0.0,0 STARLINK-3830,1 52363U 22045AJ  24044.26506860 -.00000434  00000-0 -91512-5 0  9995,2 52363  53.2186 350.3518 0001688 107.3285 252.7891 15.08842033101741,6917.874,95.437,540.907,538.571,0.0
52363.0,STARLINK-3830,PAYLOAD,2024-02-13 20:40:10,15.08837453,0.0001746,53.2185,347.675,100.5658,259.5531,-5.5766e-05,-1.175e-05,0.0,0 STARLINK-3830,1 52363U 22045AJ  24044.86123463 -.00001175  00000-0 -55766-4 0  9998,2 52363  53.2185 347.6750 0001746 100.5658 259.5531 15.08837453101837,6917.888,95.438,540.961,538.545,0.0
52363.0,STARLINK-3830,PAYLOAD,2024-02-14 06:12:28,15.08852466,0.0001572,53.2174,345.8922,80.1039,280.013,0.00020561,2.987e-05,0.0,0 STARLINK-3830,1 52363U 22045AJ  24045.25866703  .00002987  00000-0  20561-3 0  9997,2 52363  53.2174 345.8922 0001572  80.1039 280.0130 15.08852466101890,6917.842,95.437,540.795,538.62,0.0
52363.0,STARLINK-3830,PAYLOAD,2024-02-14 12:34:01,15.08842859,0.0001719,53.218,344.7,78.8222,281.2963,0.00015486,2.178e-05,0.0,0 STARLINK-3830,1 52363U 22045AJ  24045.52363212  .00002178  00000-0  15486-3 0  9996,2 52363  53.2180 344.7000 0001719  78.8222 281.2963 15.08842859101930,6917.872,95.437,540.926,538.547,0.0
52363.0,STARLINK-3830,PAYLOAD,2024-02-14 18:55:34,15.08836091,0.0002253,53.2181,343.5134,90.2151,269.9099,0.00010581,1.396e-05,0.0,0 STARLINK-3830,1 52363U 22045AJ  24045.78859848  .00001396  00000-0  10581-3 0  9991,2 52363  53.2181 343.5134 0002253  90.2151 269.9099 15.08836091101977,6917.892,95.438,541.316,538.199,0.0
52363.0,STARLINK-3830,PAYLOAD,2024-02-14 20:30:58,15.08833493,0.0001803,53.2186,343.2188,100.316,259.8036,6.709e-05,7.8e-06,0.0,0 STARLINK-3830,1 52363U 22045AJ  24045.85483885  .00000780  00000-0  67090-4 0  9997,2 52363  53.2186 343.2188 0001803 100.3160 259.8036 15.08833493101984,6917.9,95.438,541.013,538.518,0.0
52363.0,STARLINK-3830,PAYLOAD,2024-02-15 02:52:29,15.08850619,0.0001754,53.2176,342.0302,101.3649,258.7541,0.00031658,4.755e-05,0.0,0 STARLINK-3830,1 52363U 22045AJ  24046.11979075  .00004755  00000-0  31658-3 0  9994,2 52363  53.2176 342.0302 0001754 101.3649 258.7541 15.08850619102020,6917.848,95.437,540.926,538.5,0.0
52363.0,STARLINK-3830,PAYLOAD,2024-02-15 06:03:16,15.08856126,0.0001883,53.2181,341.4348,103.5899,256.5303,0.00046479,7.12e-05,0.0,0 STARLINK-3830,1 52363U 22045AJ  24046.25226874  .00007120  00000-0  46479-3 0  9997,2 52363  53.2181 341.4348 0001883 103.5899 256.5303 15.08856126102046,6917.831,95.437,540.999,538.393,0.0
52363.0,STARLINK-3830,PAYLOAD,2024-02-15 12:24:49,15.08839604,0.00023,53.2184,340.2441,92.1839,267.9417,4.8842e-05,4.89e-06,0.0,0 STARLINK-3830,1 52363U 22045AJ  24046.51723581  .00000489  00000-0  48842-4 0  9991,2 52363  53.2184 340.2441 0002300  92.1839 267.9417 15.08839604102080,6917.882,95.438,541.338,538.155,0.0
52363.0,STARLINK-3830,PAYLOAD,2024-02-16 12:15:36,15.08842813,0.000194,53.2186,335.7847,90.0464,270.0751,0.00036454,5.519e-05,0.0,0 STARLINK-3830,1 52363U 22045AJ  24047.51083931  .00005519  00000-0  36454-3 0  9994,2 52363  53.2186 335.7847 0001940  90.0464 270.0751 15.08842813102230,6917.872,95.437,541.079,538.395,0.0
52363.0,STARLINK-3830,PAYLOAD,2024-02-17 04:09:27,15.08852619,0.0001663,53.2172,332.8099,90.7363,269.3819,0.00068859,0.00010692,0.0,0 STARLINK-3830,1 52363U 22045AJ  24048.17323726  .00010692  00000-0  68859-3 0  9998,2 52363  53.2172 332.8099 0001663  90.7363 269.3819 15.08852619102331,6917.842,95.437,540.857,538.556,0.0
52363.0,STARLINK-3830,PAYLOAD,2024-02-18 04:00:14,15.08852869,0.0001592,53.2175,328.3481,89.9264,270.1911,0.00072533,0.00011279,0.0,0 STARLINK-3830,1 52363U 22045AJ  24049.16683854  .00011279  00000-0  72533-3 0  9995,2 52363  53.2175 328.3481 0001592  89.9264 270.1911 15.08852869102486,6917.841,95.437,540.807,538.605,0.0
52363.0,STARLINK-3830,PAYLOAD,2024-02-18 11:57:10,15.08849678,0.0001592,53.217,326.8637,88.6364,271.4811,0.00064748,0.00010034,0.0,0 STARLINK-3830,1 52363U 22045AJ  24049.49803943  .00010034  00000-0  64748-3 0  9991,2 52363  53.2170 326.8637 0001592  88.6364 271.4811 15.08849678102537,6917.851,95.437,540.817,538.614,0.0
52363.0,STARLINK-3830,PAYLOAD,2024-02-18 23:04:52,15.08850188,0.0001644,53.2181,324.7794,97.0054,263.1125,0.00089993,0.00014067,0.0,0 STARLINK-3830,1 52363U 22045AJ  24049.96171655  .00014067  00000-0  89993-3 0  9990,2 52363  53.2181 324.7794 0001644  97.0054 263.1125 15.08850188102600,6917.849,95.437,540.852,538.577,0.0
52363.0,STARLINK-3830,PAYLOAD,2024-02-19 11:47:57,15.08837612,0.0001484,53.2178,322.403,78.6617,281.4542,-6.4285e-05,-1.311e-05,0.0,0 STARLINK-3830,1 52363U 22045AJ  24050.49163793 -.00001311  00000-0 -64285-4 0  9992,2 52363  53.2178 322.4030 0001484  78.6617 281.4542 15.08837612102687,6917.888,95.438,540.779,538.726,0.0
52363.0,STARLINK-3830,PAYLOAD,2024-02-19 22:55:39,15.08831069,0.0001446,53.2179,320.3199,97.854,262.2616,-3.128e-05,-7.86e-06,0.0,0 STARLINK-3830,1 52363U 22045AJ  24050.95532239 -.00000786  00000-0 -31280-4 0  9992,2 52363  53.2179 320.3199 0001446  97.8540 262.2616 15.08831069102754,6917.908,95.438,540.773,538.772,0.0
52363.0,STARLINK-3830,PAYLOAD,2024-02-20 03:41:49,15.08830715,0.0001459,53.2181,319.4274,103.8231,256.2924,8.7161e-05,1.099e-05,0.0,0 STARLINK-3830,1 52363U 22045AJ  24051.15404400  .00001099  00000-0  87161-4 0  9998,2 52363  53.2181 319.4274 0001459 103.8231 256.2924 15.08830715102784,6917.909,95.438,540.783,538.764,0.0
52363.0,STARLINK-3830,PAYLOAD,2024-02-20 22:46:27,15.08847811,0.0001533,53.218,315.8599,100.9569,259.1596,0.00061533,9.521e-05,0.0,0 STARLINK-3830,1 52363U 22045AJ  24051.94892378  .00009521  00000-0  61533-3 0  9992,2 52363  53.2180 315.8599 0001533 100.9569 259.1596 15.08847811102904,6917.857,95.437,540.782,538.661,0.0
52363.0,STARLINK-3830,PAYLOAD,2024-02-21 03:32:36,15.08857596,0.0001559,53.2182,314.967,104.5219,255.5946,0.0008157,0.00012724,0.0,0 STARLINK-3830,1 52363U 22045AJ  24052.14764081  .00012724  00000-0  81570-3 0  9996,2 52363  53.2182 314.9670 0001559 104.5219 255.5946 15.08857596102939,6917.827,95.436,540.77,538.613,0.0
52363.0,STARLINK-3830,PAYLOAD,2024-02-21 09:54:08,15.08860193,0.0001481,53.2178,313.7768,94.5228,265.5934,0.0006341,9.824e-05,0.0,0 STARLINK-3830,1 52363U 22045AJ  24052.41259868  .00009824  00000-0  63410-3 0  9998,2 52363  53.2178 313.7768 0001481  94.5228 265.5934 15.08860193102970,6917.819,95.436,540.708,538.659,0.0
52363.0,STARLINK-3830,PAYLOAD,2024-02-21 22:37:12,15.08869899,0.0001508,53.2179,311.3969,83.2536,276.8628,0.00052059,8.014e-05,0.0,0 STARLINK-3830,1 52363U 22045AJ  24052.94250919  .00008014  00000-0  52059-3 0  9991,2 52363  53.2179 311.3969 0001508  83.2536 276.8628 15.08869899103052,6917.789,95.436,540.697,538.611,0.0
52363.0,STARLINK-3830,PAYLOAD,2024-02-22 03:23:21,15.08875069,0.0001499,53.218,310.505,85.8403,274.2761,0.00057458,8.877e-05,0.0,0 STARLINK-3830,1 52363U 22045AJ  24053.14122427  .00008877  00000-0  57458-3 0  9991,2 52363  53.2180 310.5050 0001499  85.8403 274.2761 15.08875069103085,6917.773,95.435,540.675,538.601,0.0
52363.0,STARLINK-3830,PAYLOAD,2024-02-22 09:44:54,15.08860161,0.0001438,53.2177,309.3191,73.9167,286.1983,0.00016869,2.399e-05,0.0,0 STARLINK-3830,1 52363U 22045AJ  24053.40618468  .00002399  00000-0  16869-3 0  9999,2 52363  53.2177 309.3191 0001438  73.9167 286.1983 15.08860161103121,6917.819,95.436,540.679,538.689,0.0
52363.0,STARLINK-3830,PAYLOAD,2024-02-22 22:28:00,15.08827272,0.0001572,53.2179,306.9496,113.711,246.4047,-0.00055565,-9.117e-05,0.0,0 STARLINK-3830,1 52363U 22045AJ  24053.93611376 -.00009117  00000-0 -55565-3 0  9991,2 52363  53.2179 306.9496 0001572 113.7110 246.4047 15.08827272103209,6917.919,95.438,540.872,538.697,0.0
52363.0,STARLINK-3830,PAYLOAD,2024-02-23 00:03:23,15.08828462,0.0001628,53.2175,306.6517,108.6583,251.4586,-0.00048184,-7.946e-05,0.0,0 STARLINK-3830,1 52363U 22045AJ  24054.00235654 -.00007946  00000-0 -48184-3 0  9998,2 52363  53.2175 306.6517 0001628 108.6583 251.4586 15.08828462103212,6917.916,95.438,540.907,538.654,0.0
52363.0,STARLINK-3830,PAYLOAD,2024-02-23 09:35:42,15.0882683,0.0001511,53.2174,304.8668,101.8156,258.3006,-0.00025368,-4.322e-05,0.0,0 STARLINK-3830,1 52363U 22045AJ  24054.39980062 -.00004322  00000-0 -25368-3 0  9994,2 52363  53.2174 304.8668 0001511 101.8156 258.3006 15.08826830103276,6917.921,95.438,540.831,538.74,0.0
52363.0,STARLINK-3830,PAYLOAD,2024-02-23 20:43:24,15.08835169,0.000135,53.217,302.7797,95.306,264.8086,0.00024786,3.658e-05,0.0,0 STARLINK-3830,1 52363U 22045AJ  24054.86348309  .00003658  00000-0  24786-3 0  9990,2 52363  53.2170 302.7797 0001350  95.3060 264.8086 15.08835169103347,6917.895,95.438,540.694,538.826,0.0
